{
  "type": "FeatureCollection",
  "features":
      },
      "properties": {
        "icao": "DTTA",
        "label": "A",
        "taxiout": false,
        "01": 10,
        "19": 10,
        "11": 10,
        "29": 10
      }
      },
      "properties": {
        "icao": "DTNH",
        "label": "A",
        "taxiout": false,
        "09": 10,
        "27": 10
      }
      },
      "properties": {
        "icao": "DTMB",
        "label": "A",
        "taxiout": false,
        "07": 8,
        "25": 8
      }
      },
      "properties": {
        "icao": "DTTJ",
        "label": "A",
        "taxiout": false,
        "09": 5,
        "27": 5,
      }
      },
      "properties": {
        "icao": "DTTX",
        "label": "A",
        "taxiout": false,
        "15": 5,
        "33": 5,
      }
      },
      "properties": {
        "icao": "DTTZ",
        "label": "A",
        "taxiout": false,
        "09": 5,
        "27": 5,
      }
      },
      "properties": {
        "icao": "DTTG",
        "label": "A",
        "taxiout": false,
        "06": 5,
        "24": 5
      }
      },
      "properties": {
        "icao": "DTTF",
        "label": "A",
        "taxiout": false,
        "05": 5,
        "23": 5,
      }
      },
      "properties": {
        "icao": "DTKA",
        "label": "A",
        "taxiout": false,
        "09": 5,
        "27": 5
      }
      },